2P/Encke,e,11.7646,334.5517,186.5624,2.215233,0.2989338,0.84799766,2.4377,07/04.0/2020,2000,g 11.5,6.0
# From MPEC 2015-A10
4P/Faye,e,8.0089,193.1828,206.8314,3.827247,0.1316359,0.57787658,303.1103,07/04.0/2020,2000,g  8.0,6.0
# From MPEC 2015-S97
6P/d'Arrest,e,19.5118,138.9333,178.0875,3.498015,0.1506509,0.61258136,293.5952,07/04.0/2020,2000,g  9.0,4.0
# From MPEC 2015-E14
7P/Pons-Winnecke,e,22.3644,93.3803,172.5716,3.415147,0.1561673,0.63854424,308.9202,07/04.0/2020,2000,g  9.0,4.0
# From MPC 75715
8P/Tuttle,e,54.9115,270.2042,207.4923,5.702723,0.0723737,0.82004607,329.6172,07/04.0/2020,2000,g  9.0,4.0
# From MPEC 2019-JE2
9P/Tempel,e,10.4721,68.7344,179.3160,3.147276,0.1765232,0.50950026,252.5350,07/04.0/2020,2000,g  9.0,4.0
# From MPC114607
10P/Tempel,e,12.0398,117.8101,195.5140,3.060726,0.1840634,0.53850026,311.5362,07/04.0/2020,2000,g  5.0,10.0
# From MPEC 2017-L52
11P/Tempel-Swift-LINEAR,e,14.4203,238.9204,167.9298,3.283259,0.1656710,0.57697820,335.9430,07/04.0/2020,2000,g  9.0,4.0
# From  27, 604
12P/Pons-Brooks,e,74.0742,255.7100,199.0453,17.08691,0.0139543,0.95428525,340.6432,07/04.0/2020,2000,g  5.0,6.0
# From  27, 604
13P/Olbers,e,44.6269,85.8477,64.5547,16.67272,0.0144775,0.92972336,338.8852,07/04.0/2020,2000,g  5.0,6.0
# From MPC100283
14P/Wolf,e,27.9023,202.0803,158.9768,4.259146,0.1121296,0.35661709,105.9514,07/04.0/2020,2000,g  5.5,12.0
# From MPC 92276
15P/Finlay,e,6.7976,13.7220,347.8364,3.504187,0.1502530,0.71695409,303.7184,07/04.0/2020,2000,g 12.0,4.0
# From MPC 92276
16P/Brooks,e,3.0103,138.8782,245.1332,3.660532,0.1407304,0.48701125,319.4681,07/04.0/2020,2000,g  7.5,10.0
# From MPC114607
17P/Holmes,e,19.0262,326.6300,24.4972,3.638269,0.1420240,0.42825266,327.2079,07/04.0/2020,2000,g 10.0,6.0
# From MPC 92984
19P/Borrelly,e,29.4264,74.4405,351.8082,3.605080,0.1439898,0.63857025,276.8502,07/04.0/2020,2000,g  4.5,10.0
# From MPC111773
21P/Giacobini-Zinner,e,32.0119,195.3661,172.8461,3.496045,0.1507782,0.71064003,99.9102,07/04.0/2020,2000,g  9.0,6.0
# From MPC 94283
22P/Kopff,e,4.7420,120.8370,162.9595,3.442967,0.1542783,0.54889933,264.0423,07/04.0/2020,2000,g  3.0,10.4
# From MPC 14747
23P/Brorsen-Metcalf,e,19.1370,312.4040,128.8358,16.95526,0.0141172,0.97099069,0.0000,08/12.3800/1989,2000,g 10.0,6.0
# From MPC110085
24P/Schaumasse,e,11.6757,79.3750,57.7462,4.060004,0.1204798,0.70842399,115.5859,07/04.0/2020,2000,g  6.5,14.0
# From MPC 94674
26P/Grigg-Skjellerup,e,22.4444,211.5380,2.1950,3.013909,0.1883687,0.64065727,120.8072,07/04.0/2020,2000,g 12.0,16.0
# From MPC 78188
27P/Crommelin,e,29.1285,250.5787,195.9978,9.190397,0.0353755,0.91794872,115.5919,07/04.0/2020,2000,g 12.0,8.0
# From MPEC 2020-L06
28P/Neujmin,e,14.3111,346.3434,347.4275,6.973936,0.0535164,0.77373156,346.5712,07/04.0/2020,2000,g  8.5,6.0
# From MPEC 2020-L06
29P/Schwassmann-Wachmann,e,9.3669,312.3757,48.2497,6.033005,0.0665125,0.04405511,31.7830,07/04.0/2020,2000,g  4.0,4.0
# From MPC110085
30P/Reinmuth,e,8.4910,118.9187,12.3564,3.711153,0.1378608,0.52246621,143.2984,07/04.0/2020,2000,g  9.5,6.0
# From MPC108597
31P/Schwassmann-Wachmann,e,4.5473,114.1145,18.2764,4.241357,0.1128358,0.19243731,41.1106,07/04.0/2020,2000,g  5.0,8.0
# From MPC 92276
32P/Comas Sola,e,9.9290,57.4949,53.4166,4.496990,0.1033525,0.55773253,215.8630,07/04.0/2020,2000,g  6.5,8.0
# From MPEC 2013-O31
33P/Daniel,e,22.3294,66.3555,20.6254,4.082417,0.1194890,0.45254616,169.6520,07/04.0/2020,2000,g 10.0,12.0
# From  15, 452
35P/Herschel-Rigollet,e,64.733,356.391,29.071,28.5681,0.006455,0.9734726,0.000,12/22.7496/2091,2000,g  9.0,4.0
# From MPC105240
36P/Whipple,e,9.9525,181.8629,200.7728,4.130522,0.1174077,0.26846454,3.9164,07/04.0/2020,2000,g  8.5,6.0
# From MPEC 2018-HA5
37P/Forbes,e,8.9573,314.5618,330.0812,3.459138,0.1531977,0.53414080,121.2883,07/04.0/2020,2000,g 10.5,4.8
# From MPEC 2018-S50
38P/Stephan-Oterma,e,18.3541,77.9942,359.5429,11.25551,0.0261010,0.85894178,15.6895,07/04.0/2020,2000,g  3.5,12.0
# From MPC115887
39P/Oterma,e,1.5612,299.2558,95.0173,7.407221,0.0488901,0.22390539,309.0015,07/04.0/2020,2000,g  7.0,6.0
# From MPC100283
40P/Vaisala,e,11.4700,133.7827,47.4646,4.950598,0.0894783,0.62999650,184.3009,07/04.0/2020,2000,g  5.5,12.0
# From MPC105240
41P/Tuttle-Giacobini-Kresak,e,9.2211,140.9969,62.2647,3.086018,0.1818052,0.66030796,214.3141,07/04.0/2020,2000,g 10.0,16.0
# From MPC 94283
42P/Neujmin,e,3.9891,150.1923,147.1685,4.872883,0.0916273,0.58547084,175.1161,07/04.0/2020,2000,g 13.0,6.0
# From MPC102956
43P/Wolf-Harrington,e,9.3953,244.4478,224.0332,4.306100,0.1103006,0.43903477,154.9598,07/04.0/2020,2000,g  8.0,6.0
# From MPEC 2020-HN5
44P/Reinmuth,e,5.8984,286.4828,58.1268,3.688798,0.1391159,0.42710275,268.3783,07/04.0/2020,2000,g  8.3,6.0
# From MPC103849
45P/Honda-Mrkos-Pajdusakova,e,4.3250,87.7014,327.9591,3.050020,0.1850333,0.81764139,237.7578,07/04.0/2020,2000,g 13.5,8.0
# From MPC114607
46P/Wirtanen,e,11.7438,82.1566,356.3652,3.091810,0.1812946,0.65834418,103.2006,07/04.0/2020,2000,g 14.0,6.0
# From NK 2718
47P/Ashbrook-Jackson,e,13.0343,356.9278,357.6008,4.125126,0.1176381,0.31790338,131.7008,07/04.0/2020,2000,g  9.0,4.0
# From MPEC 2015-M77
48P/Johnson,e,12.2083,110.1268,216.6139,3.500309,0.1505028,0.42735193,104.0791,07/04.0/2020,2000,g  9.0,4.0
# From MPEC 2015-M77
49P/Arend-Rigaux,e,19.0456,118.7980,332.9724,3.569942,0.1461209,0.59862703,105.1981,07/04.0/2020,2000,g  9.0,4.0
# From MPEC 2015-S97
50P/Arend,e,19.0977,355.1591,49.3424,4.089519,0.1191779,0.52854566,191.9179,07/04.0/2020,2000,g  9.5,6.0
# From NK 3013
51P-A/Harrington,e,5.4255,83.6739,269.2408,3.708325,0.1380185,0.54298636,246.8232,07/04.0/2020,2000,g 16.0,8.0
# From NK 3014
51P-A/Harrington,e,5.4248,83.6895,269.2015,3.709347,0.1379615,0.54305866,246.5690,07/04.0/2020,2000,g 10.0,8.0
# From NK 3014
51P-A/Harrington,e,5.4248,83.6895,269.2015,3.709329,0.1379625,0.54305557,246.5722,07/04.0/2020,2000,g 10.0,8.0
# From MPEC 2015-L08
51P-D/Harrington,e,5.4263,83.6795,269.1909,3.708415,0.1380135,0.54300058,246.8185,07/04.0/2020,2000,g 16.0,8.0
# From MPEC 2015-L08
51P-D/Harrington,e,5.4263,83.6784,269.1917,3.708403,0.1380142,0.54300115,246.8236,07/04.0/2020,2000,g 16.0,8.0
# From NK 3013
51P-D/Harrington,e,5.4255,83.6743,269.2405,3.708325,0.1380185,0.54298655,246.8234,07/04.0/2020,2000,g 16.0,8.0
# From NK 3013
51P-D/Harrington,e,5.4255,83.6743,269.2405,3.708325,0.1380185,0.54298668,246.8234,07/04.0/2020,2000,g 16.0,8.0
# From MPC 88330
52P/Harrington-Abell,e,10.2313,336.8380,139.5992,3.862289,0.1298485,0.53975505,300.4935,07/04.0/2020,2000,g 13.5,6.0
# From MPC100283
53P/Van Biesbroeck,e,6.6081,148.8342,134.4024,5.424540,0.0780117,0.55228894,118.9698,07/04.0/2020,2000,g  7.7,4.8
# From MPC 89011
54P/de Vico-Swift-NEAT,e,6.0616,358.8148,1.7622,3.793099,0.1334175,0.42543750,156.7819,07/04.0/2020,2000,g  9.0,4.0
# From MPC 31070
55P/Tempel-Tuttle,e,162.3802,235.4042,172.5391,10.34879,0.0296053,0.90667752,242.4745,07/04.0/2020,2000,g  9.0,4.0
# From MPC101100
56P/Slaughter-Burnham,e,8.1578,345.9823,44.0177,5.071948,0.0862863,0.50681338,124.8274,07/04.0/2020,2000,g  8.5,6.0
# From MPC 98565
57P/du Toit-Neujmin-Delporte,e,2.8503,188.7783,115.2238,3.446969,0.1540097,0.50076964,287.5514,07/04.0/2020,2000,g 12.5,6.0
# From MPEC 2020-HN5
58P/Jackson-Neujmin,e,13.1065,159.0822,200.4596,4.083086,0.1194597,0.66263556,4.4854,07/04.0/2020,2000,g  5.5,10.0
# From MPC111774
59P/Kearns-Kwee,e,9.3415,312.8339,127.6146,4.489405,0.1036146,0.47484899,68.0224,07/04.0/2020,2000,g  7.0,6.0
# From MPEC 2015-M77
60P/Tsuchinshan,e,3.6039,267.5885,216.7636,3.516996,0.1494329,0.53709693,85.2945,07/04.0/2020,2000,g  9.0,4.0
# From MPEC 2015-Q71
61P/Shajn-Schaldach,e,5.9988,162.9876,221.8920,3.684900,0.1393367,0.42380359,242.5885,07/04.0/2020,2000,g  6.0,10.0
# From MPC109147
62P/Tsuchinshan,e,5.7024,77.9384,39.2407,3.315737,0.1632428,0.64985422,153.5278,07/04.0/2020,2000,g  8.0,10.0
# From MPC 84320
63P/Wild,e,19.7370,358.0171,169.1493,5.604758,0.0742795,0.64903888,196.4958,07/04.0/2020,2000,g 10.5,6.0
# From MPC111774
64P/Swift-Gehrels,e,8.9505,300.0033,97.0939,4.454972,0.1048182,0.68758598,63.7375,07/04.0/2020,2000,g  9.5,12.0
# From MPC104795
65P/Gunn,e,9.1829,62.0239,213.7916,3.884087,0.1287569,0.24988188,127.4957,07/04.0/2020,2000,g  5.0,6.0
# From MPC109147
66P/du Toit,e,18.6607,21.8699,257.2996,6.062740,0.0660238,0.78696731,51.2855,07/04.0/2020,2000,g  9.0,4.0
# From MPC 89011
67P/Churyumov-Gerasimenko,e,3.8803,36.6896,21.8999,3.456918,0.1533453,0.65147581,285.5571,07/04.0/2020,2000,g 11.0,4.0
# From MPC 75716
68P/Klemola,e,11.1105,175.0794,153.0739,4.949565,0.0895063,0.63754890,21.2969,07/04.0/2020,2000,g 10.0,4.0
# From MPC114607
69P/Taylor,e,22.0330,104.8315,343.5085,3.889355,0.1284954,0.41304508,60.8722,07/04.0/2020,2000,g  9.5,12.0
# From MPC 92276
70P/Kojima,e,6.5982,119.2671,1.8590,3.675407,0.1398769,0.45337723,291.8447,07/04.0/2020,2000,g 11.0,6.0
# From MPC107051
71P/Clark,e,9.4411,59.4367,209.0166,3.138148,0.1772940,0.49420719,194.9115,07/04.0/2020,2000,g  9.8,6.0
# From MPC 89011
72P/Denning-Fujikawa,e,10.9312,26.6898,346.6703,4.311720,0.1100850,0.81804911,241.4053,07/04.0/2020,2000,g 17.5,10.0
# From MPC106348
73P/Schwassmann-Wachmann,e,11.2339,69.6495,199.4418,3.093064,0.1811844,0.68571538,218.2389,07/04.0/2020,2000,g 11.5,6.0
# From MPC106348
73P-T/Schwassmann-Wachmann,e,11.2360,69.6520,199.4233,3.094624,0.1810474,0.68591846,218.0748,07/04.0/2020,2000,g 11.5,6.0
# From MPC102956
74P/Smirnova-Chernykh,e,6.5914,76.8946,91.6982,4.212873,0.1139821,0.15377032,98.0618,07/04.0/2020,2000,g  5.0,6.0
# From MPC118097
76P/West-Kohoutek-Ikemura,e,30.4567,84.1239,0.0057,3.474143,0.1522063,0.53812041,38.3385,07/04.0/2020,2000,g  8.0,12.0
# From MPC100283
77P/Longmore,e,24.3249,14.7979,196.8698,3.620411,0.1430762,0.35243324,216.4739,07/04.0/2020,2000,g  7.0,8.0
# From MPEC 2016-U66
78P/Gehrels,e,6.2489,210.5342,192.6530,3.739864,0.1362763,0.46173567,62.4631,07/04.0/2020,2000,g  9.0,4.0
# From MPC 94675
